{
  "type": "FeatureCollection",
  "features": [
    {
      "type": "Feature",
      "properties": {
        "norad_id": 58655,
        "name": "BEIDOU-3 M26 (C48)",
        "group": "beidou",
        "lat": 37.491688563024475,
        "lon": -143.4890810336733,
        "alt_km": 21530.668923117635,
        "timestamp": "2025-12-25T07:41:09.988758+00:00",
        "meta_object_name": "BEIDOU-3 M26 (C48)",
        "meta_object_id": "2023-207B",
        "meta_epoch": "2025-12-22T23:23:41.171712",
        "meta_mean_motion": 1.86231234,
        "meta_eccentricity": 0.00041871,
        "meta_inclination": 55.5951,
        "meta_ra_of_asc_node": 68.241,
        "meta_arg_of_pericenter": 260.4893,
        "meta_mean_anomaly": 99.5155,
        "meta_ephemeris_type": 0,
        "meta_classification_type": "U",
        "meta_norad_cat_id": 58655,
        "meta_element_set_no": 999,
        "meta_rev_at_epoch": 1354,
        "meta_bstar": 0,
        "meta_mean_motion_dot": -2.8e-07,
        "meta_mean_motion_ddot": 0,
        "tle_line1": "1 58655U 23207B   25356.97478208 -.00000028  00000+0  00000+0 0  9998",
        "tle_line2": "2 58655  55.5951  68.2410 0004187 260.4893  99.5155  1.86231234 13541"
      },
      "geometry": {
        "type": "Point",
        "coordinates": [
          -143.4890810336733,
          37.491688563024475
        ]
      }
    },
    {
      "type": "Feature",
      "properties": {
        "norad_id": 61186,
        "name": "BEIDOU-3 M25 (C47)",
        "group": "beidou",
        "lat": -49.75258694071758,
        "lon": -174.77616297637937,
        "alt_km": 21524.11230275941,
        "timestamp": "2025-12-25T07:41:09.988769+00:00",
        "meta_object_name": "BEIDOU-3 M25 (C47)",
        "meta_object_id": "2024-168B",
        "meta_epoch": "2025-12-24T22:47:22.891200",
        "meta_mean_motion": 1.86230024,
        "meta_eccentricity": 0.0005414,
        "meta_inclination": 54.6312,
        "meta_ra_of_asc_node": 308.298,
        "meta_arg_of_pericenter": 300.1536,
        "meta_mean_anomaly": 60.716,
        "meta_ephemeris_type": 0,
        "meta_classification_type": "U",
        "meta_norad_cat_id": 61186,
        "meta_element_set_no": 999,
        "meta_rev_at_epoch": 854,
        "meta_bstar": 0,
        "meta_mean_motion_dot": -5.3e-07,
        "meta_mean_motion_ddot": 0,
        "tle_line1": "1 61186U 24168B   25358.94957050 -.00000053  00000+0  00000+0 0  9992",
        "tle_line2": "2 61186  54.6312 308.2980 0005414 300.1536  60.7160  1.86230024  8540"
      },
      "geometry": {
        "type": "Point",
        "coordinates": [
          -174.77616297637937,
          -49.75258694071758
        ]
      }
    },
    {
      "type": "Feature",
      "properties": {
        "norad_id": 61187,
        "name": "BEIDOU-3 M27 (C49)",
        "group": "beidou",
        "lat": 19.654440816824522,
        "lon": -37.065661254884,
        "alt_km": 21520.606308597926,
        "timestamp": "2025-12-25T07:41:09.988780+00:00",
        "meta_object_name": "BEIDOU-3 M27 (C49)",
        "meta_object_id": "2024-168C",
        "meta_epoch": "2025-12-24T11:58:42.703968",
        "meta_mean_motion": 1.86230214,
        "meta_eccentricity": 0.00025498,
        "meta_inclination": 54.6271,
        "meta_ra_of_asc_node": 308.2972,
        "meta_arg_of_pericenter": 341.1652,
        "meta_mean_anomaly": 212.6408,
        "meta_ephemeris_type": 0,
        "meta_classification_type": "U",
        "meta_norad_cat_id": 61187,
        "meta_element_set_no": 999,
        "meta_rev_at_epoch": 600,
        "meta_bstar": 0,
        "meta_mean_motion_dot": -5.3e-07,
        "meta_mean_motion_ddot": 0,
        "tle_line1": "1 61187U 24168C   25358.49910537 -.00000053  00000+0  00000+0 0  9992",
        "tle_line2": "2 61187  54.6271 308.2972 0002549 341.1652 212.6408  1.86230214  6009"
      },
      "geometry": {
        "type": "Point",
        "coordinates": [
          -37.065661254884,
          19.654440816824522
        ]
      }
    }
  ]
}